QIANFAN-73              
1 63159U 25046A   26011.89765016  .00000196  00000+0  28473-3 0  9995
2 63159  88.9789 316.9048 0016641  41.0351 319.2048 13.50987655 51482
QIANFAN-74              
1 63160U 25046B   26011.95516210  .00000191  00000+0  27777-3 0  9995
2 63160  88.9789 316.7876 0001931  69.4590 290.6768 13.50984747 51554
QIANFAN-75              
1 63161U 25046C   26011.94235382  .00000215  00000+0  31404-3 0  9992
2 63161  88.9790 317.0230 0017889  43.2195 317.0356 13.50987690 51428
QIANFAN-76              
1 63162U 25046D   26011.93899862  .00000199  00000+0  28890-3 0  9997
2 63162  88.9789 317.0038 0015455  44.3226 315.9160 13.50990034 51434
QIANFAN-77              
1 63163U 25046E   26011.93148381  .00000458  00000+0  32407-3 0  9998
2 63163  88.9789 314.7641 0015083 355.2412   4.8619 13.96119321 52668
QIANFAN-78              
1 63164U 25046F   26011.90584374  .00000211  00000+0  30743-3 0  9990
2 63164  88.9788 316.8709 0016862  46.0843 314.1696 13.50988896 51500
QIANFAN-79              
1 63165U 25046G   26011.93448669  .00000096  00000+0  13036-3 0  9997
2 63165  88.9793 316.9766 0016546  44.5705 315.6773 13.50985499 51452
QIANFAN-80              
1 63166U 25046H   26011.95103093  .00000204  00000+0  29655-3 0  9994
2 63166  88.9790 316.6810 0015561  48.4824 311.7659 13.50988721 51617
